$$SOE
2460147.500000000, A.D. 2023-Jul-22 00:00:00.0000, -2.171971210194558E+08, -2.791147755298690E+08, 2.223354443978985E+07,
2460154.500000000, A.D. 2023-Jul-29 00:00:00.0000, -2.078030384870411E+08, -2.857045919724222E+08, 2.334430265208738E+07,
2460161.500000000, A.D. 2023-Aug-05 00:00:00.0000, -1.981817351984834E+08, -2.919819354198616E+08, 2.442952947527426E+07,
2460168.500000000, A.D. 2023-Aug-12 00:00:00.0000, -1.883431444613209E+08, -2.979390690340942E+08, 2.548796508644429E+07,
2460175.500000000, A.D. 2023-Aug-19 00:00:00.0000, -1.782974735940884E+08, -3.035685360517192E+08, 2.651836961201642E+07,
2460182.500000000, A.D. 2023-Aug-26 00:00:00.0000, -1.680551984931684E+08, -3.088631693687829E+08, 2.751952442717378E+07,
2460189.500000000, A.D. 2023-Sep-02 00:00:00.0000, -1.576270578854577E+08, -3.138161012778985E+08, 2.849023347309919E+07,
2460196.500000000, A.D. 2023-Sep-09 00:00:00.0000, -1.470240472117527E+08, -3.184207733911483E+08, 2.942932458537902E+07,
2460203.500000000, A.D. 2023-Sep-16 00:00:00.0000, -1.362574119537142E+08, -3.226709467964314E+08, 3.033565081326950E+07,
2460210.500000000, A.D. 2023-Sep-23 00:00:00.0000, -1.253386399688759E+08, -3.265607121482234E+08, 3.120809171466814E+07,
2460217.500000000, A.D. 2023-Sep-30 00:00:00.0000, -1.142794531540782E+08, -3.300844984875957E+08, 3.204555475456728E+07,
2460224.500000000, A.D. 2023-Oct-07 00:00:00.0000, -1.030918007711997E+08, -3.332370813169106E+08, 3.284697697731401E+07,
2460231.500000000, A.D. 2023-Oct-14 00:00:00.0000, -9.178785337453142E+07, -3.360135932242804E+08, 3.361132658499064E+07,
2460238.500000000, A.D. 2023-Oct-21 00:00:00.0000, -8.037999409202094E+07, -3.384095354385104E+08, 3.433760425570783E+07,
2460245.500000000, A.D. 2023-Oct-28 00:00:00.0000, -6.888080866769089E+07, -3.404207880357937E+08, 3.502484451636405E+07,
2460252.500000000, A.D. 2023-Nov-04 00:00:00.0000, -5.730307549873324E+07, -3.420436195460498E+08, 3.567211722035608E+07,
2460259.500000000, A.D. 2023-Nov-11 00:00:00.0000, -4.565975547371154E+07, -3.432746965333515E+08, 3.627852906320293E+07,
2460266.500000000, A.D. 2023-Nov-18 00:00:00.0000, -3.396398137687244E+07, -3.441110931865174E+08, 3.684322510828470E+07,
2460273.500000000, A.D. 2023-Nov-25 00:00:00.0000, -2.222904677009708E+07, -3.445503008671828E+08, 3.736539031482564E+07,
2460280.500000000, A.D. 2023-Dec-02 00:00:00.0000, -1.046839430915442E+07, -3.445902375963619E+08, 3.784425106162947E+07,
2460287.500000000, A.D. 2023-Dec-09 00:00:00.0000, 1.304396596369652E+06, -3.442292575081325E+08, 3.827907665204312E+07,
2460294.500000000, A.D. 2023-Dec-16 00:00:00.0000, 1.307562307690392E+07, -3.434661602256428E+08, 3.866918077214193E+07,
2460301.500000000, A.D. 2023-Dec-23 00:00:00.0000, 2.483147340664640E+07, -3.423001994369331E+08, 3.901392292309316E+07,
2460308.500000000, A.D. 2023-Dec-30 00:00:00.0000, 3.655804158273707E+07, -3.407310895830516E+08, 3.931271003231931E+07,
2460315.500000000, A.D. 2024-Jan-06 00:00:00.0000, 4.824134011172364E+07, -3.387590129770693E+08, 3.956499820803759E+07,
2460322.500000000, A.D. 2024-Jan-13 00:00:00.0000, 5.986731417993115E+07, -3.363846291180676E+08, 3.977029419314325E+07,
2460329.500000000, A.D. 2024-Jan-20 00:00:00.0000, 7.142185843266512E+07, -3.336090830747871E+08, 3.992815665364584E+07,
2460336.500000000, A.D. 2024-Jan-27 00:00:00.0000, 8.289083433090231E+07, -3.304340122449448E+08, 4.003819753644057E+07,
2460343.500000000, A.D. 2024-Feb-03 00:00:00.0000, 9.426008765144496E+07, -3.268615523947076E+08, 4.010008345315063E+07,
2460350.500000000, A.D. 2024-Feb-10 00:00:00.0000, 1.055154663993194E+08, -3.228943432243858E+08, 4.011353703562665E+07,
2460357.500000000, A.D. 2024-Feb-17 00:00:00.0000, 1.166428392586551E+08, -3.185355334069324E+08, 4.007833824573572E+07,
2460364.500000000, A.D. 2024-Feb-24 00:00:00.0000, 1.276281146008720E+08, -3.137887850378535E+08, 3.999432563156870E+07,
2460371.500000000, A.D. 2024-Mar-02 00:00:00.0000, 1.384572600579313E+08, -3.086582774808596E+08, 3.986139751823045E+07,
2460378.500000000, A.D. 2024-Mar-09 00:00:00.0000, 1.491163227734261E+08, -3.031487106229243E+08, 3.967951310838896E+07,
2460385.500000000, A.D. 2024-Mar-16 00:00:00.0000, 1.595914506958805E+08, -2.972653072910426E+08, 3.944869346480793E+07,
2460392.500000000, A.D. 2024-Mar-23 00:00:00.0000, 1.698689147767259E+08, -2.910138136689588E+08, 3.916902246624552E+07,
2460399.500000000, A.D. 2024-Mar-30 00:00:00.0000, 1.799351297978513E+08, -2.844004976875924E+08, 3.884064793120193E+07,
2460406.500000000, A.D. 2024-Apr-06 00:00:00.0000, 1.897766740507942E+08, -2.774321487072945E+08, 3.846378260350452E+07,
2460413.500000000, A.D. 2024-Apr-13 00:00:00.0000, 1.993803113819782E+08, -2.701160776143248E+08, 3.803870473775601E+07,
2460420.500000000, A.D. 2024-Apr-20 00:00:00.0000, 2.087330146073385E+08, -2.624601146210487E+08, 3.756575858747990E+07,
2460427.500000000, A.D. 2024-Apr-27 00:00:00.0000, 2.178219887255075E+08, -2.544726052976726E+08, 3.704535488474937E+07,
2460434.500000000, A.D. 2024-May-04 00:00:00.0000, 2.266346939577983E+08, -2.461624055032950E+08, 3.647797123965621E+07,
2460441.500000000, A.D. 2024-May-11 00:00:00.0000, 2.351588687905068E+08, -2.375388752828489E+08, 3.586415242277998E+07,
2460448.500000000, A.D. 2024-May-18 00:00:00.0000, 2.433825530359422E+08, -2.286118716761079E+08, 3.520451051847646E+07,
2460455.500000000, A.D. 2024-May-25 00:00:00.0000, 2.512941108675831E+08, -2.193917404179013E+08, 3.449972493999960E+07,
2460462.500000000, A.D. 2024-Jun-01 00:00:00.0000, 2.588822538152822E+08, -2.098893065624323E+08, 3.375054228999903E+07,
2460469.500000000, A.D. 2024-Jun-08 00:00:00.0000, 2.661360638904679E+08, -2.001158640326298E+08, 3.295777603588911E+07,
2460476.500000000, A.D. 2024-Jun-15 00:00:00.0000, 2.730450171658099E+08, -1.900831635335868E+08, 3.212230600396287E+07,
2460483.500000000, A.D. 2024-Jun-22 00:00:00.0000, 2.795990067283842E+08, -1.798033976500863E+08, 3.124507787846047E+07,
2460490.500000000, A.D. 2024-Jun-29 00:00:00.0000, 2.857883628019220E+08, -1.692891849511772E+08, 3.032710274859651E+07,
2460497.500000000, A.D. 2024-Jul-06 00:00:00.0000, 2.916038725945278E+08, -1.585535555753328E+08, 2.936945625485273E+07,
2460504.500000000, A.D. 2024-Jul-13 00:00:00.0000, 2.970368017344548E+08, -1.476099354787264E+08, 2.837327738364292E+07,
2460511.500000000, A.D. 2024-Jul-20 00:00:00.0000, 3.020789152241377E+08, -1.364721282140415E+08, 2.733976718529346E+07,
2460518.500000000, A.D. 2024-Jul-27 00:00:00.0000, 3.067224971717909E+08, -1.251542952232844E+08, 2.627018739671790E+07,
2460525.500000000, A.D. 2024-Aug-03 00:00:00.0000, 3.109603694886368E+08, -1.136709350499203E+08, 2.516585891320365E+07,
2460532.500000000, A.D. 2024-Aug-10 00:00:00.0000, 3.147859096339086E+08, -1.020368615117215E+08, 2.402816009453918E+07,
2460539.500000000, A.D. 2024-Aug-17 00:00:00.0000, 3.181930673735493E+08, -9.026718085668409E+07, 2.285852490456023E+07,
2460546.500000000, A.D. 2024-Aug-24 00:00:00.0000, 3.211763805015733E+08, -7.837726797630873E+07, 2.165844088215556E+07,
2460553.500000000, A.D. 2024-Aug-31 00:00:00.0000, 3.237309895617788E+08, -6.638274179827341E+07, 2.042944693074954E+07,
2460560.500000000, A.D. 2024-Sep-07 00:00:00.0000, 3.258526518554267E+08, -5.429943979835800E+07, 1.917313090531185E+07,
2460567.500000000, A.D. 2024-Sep-14 00:00:00.0000, 3.275377547431827E+08, -4.214339070284904E+07, 1.789112707385696E+07,
2460574.500000000, A.D. 2024-Sep-21 00:00:00.0000, 3.287833261486135E+08, -2.993078504237893E+07, 1.658511367970337E+07,
2460581.500000000, A.D. 2024-Sep-28 00:00:00.0000, 3.295870417161077E+08, -1.767794686947909E+07, 1.525681039208310E+07,
2460588.500000000, A.D. 2024-Oct-05 00:00:00.0000, 3.299472322307056E+08, -5.401306722859778E+06, 1.390797531464045E+07,
2460595.500000000, A.D. 2024-Oct-12 00:00:00.0000, 3.298628908883986E+08, 6.882627057626466E+06, 1.254040183683291E+07,
2460602.500000000, A.D. 2024-Oct-19 00:00:00.0000, 3.293336786300935E+08, 1.915729830337767E+07, 1.115591547721201E+07,
2460609.500000000, A.D. 2024-Oct-26 00:00:00.0000, 3.283599274797366E+08, 3.140613337669485E+07, 9.756370667061426E+06,
2460616.500000000, A.D. 2024-Nov-02 00:00:00.0000, 3.269426421226286E+08, 4.361257166572961E+07, 8.343647449648470E+06,
2460623.500000000, A.D. 2024-Nov-09 00:00:00.0000, 3.250834998049538E+08, 5.576009612947399E+07, 6.919648098962225E+06,
2460630.500000000, A.D. 2024-Nov-16 00:00:00.0000, 3.227848485718397E+08, 6.783226378653276E+07, 5.486293666895051E+06,
2460637.500000000, A.D. 2024-Nov-23 00:00:00.0000, 3.200497038911671E+08, 7.981273599129590E+07, 4.045520462176148E+06,
2460644.500000000, A.D. 2024-Nov-30 00:00:00.0000, 3.168817438814724E+08, 9.168530834671304E+07, 2.599276450210202E+06,
2460651.500000000, A.D. 2024-Dec-07 00:00:00.0000, 3.132853035778215E+08, 1.034339405613660E+08, 1.149517580713868E+06,
2460658.500000000, A.D. 2024-Dec-14 00:00:00.0000, 3.092653675581949E+08, 1.150427873631517E+08, -3.017957826878801E+05,
2460665.500000000, A.D. 2024-Dec-21 00:00:00.0000, 3.048275586336591E+08, 1.264962291283594E+08, -1.752702206729732E+06,
2460672.500000000, A.D. 2024-Dec-28 00:00:00.0000, 2.999781246122135E+08, 1.377788991599478E+08, -3.201242717163853E+06,
2460679.500000000, A.D. 2025-Jan-04 00:00:00.0000, 2.947239257714428E+08, 1.488757098971112E+08, -4.645464542910904E+06,
2460686.500000000, A.D. 2025-Jan-11 00:00:00.0000, 2.890724212708414E+08, 1.597718796335048E+08, -6.083424758659065E+06,
2460693.500000000, A.D. 2025-Jan-18 00:00:00.0000, 2.830316536573295E+08, 1.704529587443628E+08, -7.513193803145610E+06,
2460700.500000000, A.D. 2025-Jan-25 00:00:00.0000, 2.766102317838506E+08, 1.809048548649251E+08, -8.932858922181666E+06,
2460707.500000000, A.D. 2025-Feb-01 00:00:00.0000, 2.698173124066307E+08, 1.911138569094324E+08, -1.034052754533730E+07,
2460714.500000000, A.D. 2025-Feb-08 00:00:00.0000, 2.626625805959820E+08, 2.010666578764451E+08, -1.173433058958058E+07,
$$EOE